[
    {
        "Altitude(m)": 553490.0512532388,
        "Argument of Periapsis(deg)": 0.019868973332140504,
        "Eccentricity": 0.0,
        "Inclination(deg)": 53.0,
        "Latitude(deg)": 10.606425880708645,
        "Longitude(deg)": -20.44784031841077,
        "Mean Anomaly(deg)": -193.36152139726727,
        "RAAN(deg)": 269.97043010558406,
        "Satellite Name": "Starlink Shell 1 1196",
        "Satellite Number": 1196,
        "Semi-Major Axis(m)": 6931778.249405717,
        "Time(s)": 570
    },
    {
        "Altitude(m)": 553498.0506480896,
        "Argument of Periapsis(deg)": 0.02021755181165174,
        "Eccentricity": 0.0,
        "Inclination(deg)": 53.0,
        "Latitude(deg)": 10.10724922918839,
        "Longitude(deg)": -20.09986588713339,
        "Mean Anomaly(deg)": -192.73469019371052,
        "RAAN(deg)": 269.9699113355066,
        "Satellite Name": "Starlink Shell 1 1196",
        "Satellite Number": 1196,
        "Semi-Major Axis(m)": 6931778.249405717,
        "Time(s)": 580
    },
    {
        "Altitude(m)": 553508.7357812438,
        "Argument of Periapsis(deg)": 0.020566130291162974,
        "Eccentricity": 0.0,
        "Inclination(deg)": 53.0,
        "Latitude(deg)": 9.607604741973043,
        "Longitude(deg)": -19.753094447385664,
        "Mean Anomaly(deg)": -192.10785899015383,
        "RAAN(deg)": 269.96939256542913,
        "Satellite Name": "Starlink Shell 1 1196",
        "Satellite Number": 1196,
        "Semi-Major Axis(m)": 6931778.249405717,
        "Time(s)": 590
    },
    {
        "Altitude(m)": 553522.1246276107,
        "Argument of Periapsis(deg)": 0.020914708770674213,
        "Eccentricity": 0.0,
        "Inclination(deg)": 53.0,
        "Latitude(deg)": 9.10751770471095,
        "Longitude(deg)": -19.40746346209574,
        "Mean Anomaly(deg)": -191.4810277865971,
        "RAAN(deg)": 269.9688737953516,
        "Satellite Name": "Starlink Shell 1 1196",
        "Satellite Number": 1196,
        "Semi-Major Axis(m)": 6931778.249405717,
        "Time(s)": 600
    },
    {
        "Altitude(m)": 553538.2339060925,
        "Argument of Periapsis(deg)": 0.021263287250185448,
        "Eccentricity": 0.0,
        "Inclination(deg)": 53.0,
        "Latitude(deg)": 8.607013162415049,
        "Longitude(deg)": -19.06291089087894,
        "Mean Anomaly(deg)": -190.85419658304042,
        "RAAN(deg)": 269.96835502527415,
        "Satellite Name": "Starlink Shell 1 1196",
        "Satellite Number": 1196,
        "Semi-Major Axis(m)": 6931778.249405717,
        "Time(s)": 610
    },
    {
        "Altitude(m)": 553557.0790684873,
        "Argument of Periapsis(deg)": 0.021611865729696686,
        "Eccentricity": 0.0,
        "Inclination(deg)": 53.0,
        "Latitude(deg)": 8.106115933164459,
        "Longitude(deg)": -18.71937465934206,
        "Mean Anomaly(deg)": -190.22736537948367,
        "RAAN(deg)": 269.9678362551967,
        "Satellite Name": "Starlink Shell 1 1196",
        "Satellite Number": 1196,
        "Semi-Major Axis(m)": 6931778.249405717,
        "Time(s)": 620
    },
    {
        "Altitude(m)": 553578.674289031,
        "Argument of Periapsis(deg)": 0.02196044420920792,
        "Eccentricity": 0.0,
        "Inclination(deg)": 53.0,
        "Latitude(deg)": 7.604850621591852,
        "Longitude(deg)": -18.37679380945255,
        "Mean Anomaly(deg)": -189.60053417592695,
        "RAAN(deg)": 269.9673174851192,
        "Satellite Name": "Starlink Shell 1 1196",
        "Satellite Number": 1196,
        "Semi-Major Axis(m)": 6931778.249405717,
        "Time(s)": 630
    },
    {
        "Altitude(m)": 553603.0324545896,
        "Argument of Periapsis(deg)": 0.02230902268871916,
        "Eccentricity": 0.0,
        "Inclination(deg)": 53.0,
        "Latitude(deg)": 7.103241632174744,
        "Longitude(deg)": -18.03510712854563,
        "Mean Anomaly(deg)": -188.97370297237023,
        "RAAN(deg)": 269.9667987150417,
        "Satellite Name": "Starlink Shell 1 1196",
        "Satellite Number": 1196,
        "Semi-Major Axis(m)": 6931778.249405717,
        "Time(s)": 640
    },
    {
        "Altitude(m)": 553630.1651554622,
        "Argument of Periapsis(deg)": 0.022657601168230398,
        "Eccentricity": 0.0,
        "Inclination(deg)": 53.0,
        "Latitude(deg)": 6.601313182334293,
        "Longitude(deg)": -17.694254299882076,
        "Mean Anomaly(deg)": -188.3468717688135,
        "RAAN(deg)": 269.9662799449643,
        "Satellite Name": "Starlink Shell 1 1196",
        "Satellite Number": 1196,
        "Semi-Major Axis(m)": 6931778.249405717,
        "Time(s)": 650
    },
    {
        "Altitude(m)": 553660.0826768443,
        "Argument of Periapsis(deg)": 0.023006179647741636,
        "Eccentricity": 0.0,
        "Inclination(deg)": 53.0,
        "Latitude(deg)": 6.0990893153607955,
        "Longitude(deg)": -17.35417537232755,
        "Mean Anomaly(deg)": -187.7200405652568,
        "RAAN(deg)": 269.96576117488684,
        "Satellite Name": "Starlink Shell 1 1196",
        "Satellite Number": 1196,
        "Semi-Major Axis(m)": 6931778.249405717,
        "Time(s)": 660
    },
    {
        "Altitude(m)": 553692.7939909371,
        "Argument of Periapsis(deg)": 0.023354758127252868,
        "Eccentricity": 0.0,
        "Inclination(deg)": 53.0,
        "Latitude(deg)": 5.596593913175112,
        "Longitude(deg)": -17.01481023012288,
        "Mean Anomaly(deg)": -187.09320936170013,
        "RAAN(deg)": 269.9652424048093,
        "Satellite Name": "Starlink Shell 1 1196",
        "Satellite Number": 1196,
        "Semi-Major Axis(m)": 6931778.249405717,
        "Time(s)": 670
    },
    {
        "Altitude(m)": 553728.3067496879,
        "Argument of Periapsis(deg)": 0.023703336606764106,
        "Eccentricity": 0.0,
        "Inclination(deg)": 53.0,
        "Latitude(deg)": 5.093850708935399,
        "Longitude(deg)": -16.676099575615623,
        "Mean Anomaly(deg)": -186.46637815814336,
        "RAAN(deg)": 269.96472363473185,
        "Satellite Name": "Starlink Shell 1 1196",
        "Satellite Number": 1196,
        "Semi-Major Axis(m)": 6931778.249405717,
        "Time(s)": 680
    },
    {
        "Altitude(m)": 553766.6272782333,
        "Argument of Periapsis(deg)": 0.024051915086275345,
        "Eccentricity": 0.0,
        "Inclination(deg)": 53.0,
        "Latitude(deg)": 4.590883299505349,
        "Longitude(deg)": -16.33798439920183,
        "Mean Anomaly(deg)": -185.83954695458667,
        "RAAN(deg)": 269.9642048646544,
        "Satellite Name": "Starlink Shell 1 1196",
        "Satellite Number": 1196,
        "Semi-Major Axis(m)": 6931778.249405717,
        "Time(s)": 690
    },
    {
        "Altitude(m)": 553807.7605689378,
        "Argument of Periapsis(deg)": 0.024400493565786583,
        "Eccentricity": 0.0,
        "Inclination(deg)": 53.0,
        "Latitude(deg)": 4.08771515779376,
        "Longitude(deg)": -16.000405449347756,
        "Mean Anomaly(deg)": -185.21271575102995,
        "RAAN(deg)": 269.96368609457693,
        "Satellite Name": "Starlink Shell 1 1196",
        "Satellite Number": 1196,
        "Semi-Major Axis(m)": 6931778.249405717,
        "Time(s)": 700
    },
    {
        "Altitude(m)": 553851.7102761696,
        "Argument of Periapsis(deg)": 0.024749072045297815,
        "Eccentricity": 0.0,
        "Inclination(deg)": 53.0,
        "Latitude(deg)": 3.584369644974383,
        "Longitude(deg)": -15.663304215559537,
        "Mean Anomaly(deg)": -184.58588454747326,
        "RAAN(deg)": 269.96316732449947,
        "Satellite Name": "Starlink Shell 1 1196",
        "Satellite Number": 1196,
        "Semi-Major Axis(m)": 6931778.249405717,
        "Time(s)": 710
    },
    {
        "Altitude(m)": 553898.4787116749,
        "Argument of Periapsis(deg)": 0.025097650524809053,
        "Eccentricity": 0.0,
        "Inclination(deg)": 53.0,
        "Latitude(deg)": 3.0808700226019816,
        "Longitude(deg)": -15.326622398548835,
        "Mean Anomaly(deg)": -183.9590533439165,
        "RAAN(deg)": 269.96264855442195,
        "Satellite Name": "Starlink Shell 1 1196",
        "Satellite Number": 1196,
        "Semi-Major Axis(m)": 6931778.249405717,
        "Time(s)": 720
    },
    {
        "Altitude(m)": 553948.0668406743,
        "Argument of Periapsis(deg)": 0.02544622900432029,
        "Eccentricity": 0.0,
        "Inclination(deg)": 53.0,
        "Latitude(deg)": 2.5772394646352903,
        "Longitude(deg)": -14.990301380461933,
        "Mean Anomaly(deg)": -183.3322221403598,
        "RAAN(deg)": 269.9621297843445,
        "Satellite Name": "Starlink Shell 1 1196",
        "Satellite Number": 1196,
        "Semi-Major Axis(m)": 6931778.249405717,
        "Time(s)": 730
    },
    {
        "Altitude(m)": 554000.4742785894,
        "Argument of Periapsis(deg)": 0.02579480748383153,
        "Eccentricity": 0.0,
        "Inclination(deg)": 53.0,
        "Latitude(deg)": 2.073501069373403,
        "Longitude(deg)": -14.65428320803903,
        "Mean Anomaly(deg)": -182.70539093680307,
        "RAAN(deg)": 269.961611014267,
        "Satellite Name": "Starlink Shell 1 1196",
        "Satellite Number": 1196,
        "Semi-Major Axis(m)": 6931778.249405717,
        "Time(s)": 740
    },
    {
        "Altitude(m)": 554055.6992884872,
        "Argument of Periapsis(deg)": 0.026143385963342765,
        "Eccentricity": 0.0,
        "Inclination(deg)": 53.0,
        "Latitude(deg)": 1.569677871324122,
        "Longitude(deg)": -14.318510062951331,
        "Mean Anomaly(deg)": -182.07855973324632,
        "RAAN(deg)": 269.96109224418956,
        "Satellite Name": "Starlink Shell 1 1196",
        "Satellite Number": 1196,
        "Semi-Major Axis(m)": 6931778.249405717,
        "Time(s)": 750
    }
]